STARLINK-1021_new
1 14726C 19074P   21326.14876932  .00004777  00000-0  32000-3 0  3265
2 14726  53.0547  28.0852 0001140  77.1089 177.3624 15.06397721    14
STARLINK-1021_old
1 24726C 19074P   21325.11912042  .00004736  00000-0  31736-3 0  3253
2 24726  53.0549  32.7075 0001151  81.0193 346.5680 15.06386086    11
